[{"OBJECT_NAME":"STARLINK-5663","OBJECT_ID":"2023-013S","EPOCH":"2026-03-09T01:04:02.640000","MEAN_MOTION":15.02539408,"ECCENTRICITY":8.053e-5,"INCLINATION":43.0041,"RA_OF_ASC_NODE":303.7282,"ARG_OF_PERICENTER":243.6886,"MEAN_ANOMALY":116.3874,"EPHEMERIS_TYPE":0,"CLASSIFICATION_TYPE":"U","NORAD_CAT_ID":55347,"ELEMENT_SET_NO":999,"REV_AT_EPOCH":17161,"BSTAR":-0.00012622335,"MEAN_MOTION_DOT":-1.908e-5,"MEAN_MOTION_DDOT":0},{"OBJECT_NAME":"COSMOS 2084","OBJECT_ID":"1990-055A","EPOCH":"2026-03-09T23:42:10.320480","MEAN_MOTION":15.05654003,"ECCENTRICITY":0.00170188,"INCLINATION":62.7921,"RA_OF_ASC_NODE":334.5624,"ARG_OF_PERICENTER":190.1371,"MEAN_ANOMALY":169.9389,"EPHEMERIS_TYPE":0,"CLASSIFICATION_TYPE":"U","NORAD_CAT_ID":20663,"ELEMENT_SET_NO":999,"REV_AT_EPOCH":93636,"BSTAR":0.00023056361,"MEAN_MOTION_DOT":3.154e-5,"MEAN_MOTION_DDOT":0}]
